[
  {
    "OBJECT_NAME": "STARLINK-32195",
    "OBJECT_ID": "24144R",
    "EPOCH": "2025-11-11T06:55:35.493600",
    "MEAN_MOTION": 15.30199113,
    "ECCENTRICITY": 0.0001048,
    "INCLINATION": 53.1609,
    "RA_OF_ASC_NODE": 46.9364,
    "ARG_OF_PERICENTER": 100.2724,
    "MEAN_ANOMALY": 259.8395,
    "EPHEMERIS_TYPE": 0,
    "CLASSIFICATION_TYPE": "U",
    "NORAD_CAT_ID": 60440,
    "ELEMENT_SET_NO": 999,
    "REV_AT_EPOCH": 7118,
    "BSTAR": 0.0,
    "MEAN_MOTION_DOT": -5.234e-05,
    "MEAN_MOTION_DDOT": 0.0,
    "TLE_LINE1": "1 60440U 24144R   25315.28860525 -.00005234  00000+0 -16472-3 0  9999",
    "TLE_LINE2": "2 60440  53.1609  46.9364 0001048 100.2724 259.8395 15.30199113 71182",
    "COMMENT": "Grouped by shell and plane from TLE"
  },
  {
    "OBJECT_NAME": "STARLINK-32177",
    "OBJECT_ID": "24144S",
    "EPOCH": "2025-11-11T06:44:58.378272",
    "MEAN_MOTION": 15.30174371,
    "ECCENTRICITY": 7.69e-05,
    "INCLINATION": 53.1637,
    "RA_OF_ASC_NODE": 46.8855,
    "ARG_OF_PERICENTER": 47.4338,
    "MEAN_ANOMALY": 312.6728,
    "EPHEMERIS_TYPE": 0,
    "CLASSIFICATION_TYPE": "U",
    "NORAD_CAT_ID": 60441,
    "ELEMENT_SET_NO": 999,
    "REV_AT_EPOCH": 7118,
    "BSTAR": 5.7367e-07,
    "MEAN_MOTION_DOT": -3.42e-06,
    "MEAN_MOTION_DDOT": 0.0,
    "TLE_LINE1": "1 60441U 24144S   25315.28123123 -.00000342  00000+0  57367-6 0  9991",
    "TLE_LINE2": "2 60441  53.1637  46.8855 0000769  47.4338 312.6728 15.30174371 71187",
    "COMMENT": "Grouped by shell and plane from TLE"
  },
  {
    "OBJECT_NAME": "STARLINK-32252",
    "OBJECT_ID": "24144T",
    "EPOCH": "2025-11-11T06:35:48.592608",
    "MEAN_MOTION": 15.30180878,
    "ECCENTRICITY": 0.0001137,
    "INCLINATION": 53.1604,
    "RA_OF_ASC_NODE": 46.8447,
    "ARG_OF_PERICENTER": 83.6118,
    "MEAN_ANOMALY": 276.5012,
    "EPHEMERIS_TYPE": 0,
    "CLASSIFICATION_TYPE": "U",
    "NORAD_CAT_ID": 60442,
    "ELEMENT_SET_NO": 999,
    "REV_AT_EPOCH": 7122,
    "BSTAR": 0.00018862000000000002,
    "MEAN_MOTION_DOT": 5.228e-05,
    "MEAN_MOTION_DDOT": 0.0,
    "TLE_LINE1": "1 60442U 24144T   25315.27486797  .00005228  00000+0  18862-3 0  9991",
    "TLE_LINE2": "2 60442  53.1604  46.8447 0001137  83.6118 276.5012 15.30180878 71225",
    "COMMENT": "Grouped by shell and plane from TLE"
  },
  {
    "OBJECT_NAME": "STARLINK-32237",
    "OBJECT_ID": "24144U",
    "EPOCH": "2025-11-11T06:40:21.830880",
    "MEAN_MOTION": 15.30199707,
    "ECCENTRICITY": 0.0001333,
    "INCLINATION": 53.1603,
    "RA_OF_ASC_NODE": 46.8682,
    "ARG_OF_PERICENTER": 78.9066,
    "MEAN_ANOMALY": 281.2085,
    "EPHEMERIS_TYPE": 0,
    "CLASSIFICATION_TYPE": "U",
    "NORAD_CAT_ID": 60443,
    "ELEMENT_SET_NO": 999,
    "REV_AT_EPOCH": 7118,
    "BSTAR": 0.00017428,
    "MEAN_MOTION_DOT": 4.806e-05,
    "MEAN_MOTION_DDOT": 0.0,
    "TLE_LINE1": "1 60443U 24144U   25315.27803045  .00004806  00000+0  17428-3 0  9999",
    "TLE_LINE2": "2 60443  53.1603  46.8682 0001333  78.9066 281.2085 15.30199707 71182",
    "COMMENT": "Grouped by shell and plane from TLE"
  },
  {
    "OBJECT_NAME": "STARLINK-32249",
    "OBJECT_ID": "24144V",
    "EPOCH": "2025-11-11T06:26:42.096192",
    "MEAN_MOTION": 15.30201673,
    "ECCENTRICITY": 0.0001353,
    "INCLINATION": 53.1607,
    "RA_OF_ASC_NODE": 46.8056,
    "ARG_OF_PERICENTER": 61.4451,
    "MEAN_ANOMALY": 298.6686,
    "EPHEMERIS_TYPE": 0,
    "CLASSIFICATION_TYPE": "U",
    "NORAD_CAT_ID": 60444,
    "ELEMENT_SET_NO": 999,
    "REV_AT_EPOCH": 7122,
    "BSTAR": 0.00025940999999999996,
    "MEAN_MOTION_DOT": 7.332e-05,
    "MEAN_MOTION_DDOT": 0.0,
    "TLE_LINE1": "1 60444U 24144V   25315.26854278  .00007332  00000+0  25941-3 0  9999",
    "TLE_LINE2": "2 60444  53.1607  46.8056 0001353  61.4451 298.6686 15.30201673 71229",
    "COMMENT": "Grouped by shell and plane from TLE"
  },
  {
    "OBJECT_NAME": "STARLINK-32228",
    "OBJECT_ID": "24144W",
    "EPOCH": "2025-11-11T06:31:15.602304",
    "MEAN_MOTION": 15.30201469,
    "ECCENTRICITY": 0.0001635,
    "INCLINATION": 53.1638,
    "RA_OF_ASC_NODE": 46.8338,
    "ARG_OF_PERICENTER": 12.6476,
    "MEAN_ANOMALY": 347.4566,
    "EPHEMERIS_TYPE": 0,
    "CLASSIFICATION_TYPE": "U",
    "NORAD_CAT_ID": 60445,
    "ELEMENT_SET_NO": 999,
    "REV_AT_EPOCH": 7122,
    "BSTAR": 7.446199999999999e-05,
    "MEAN_MOTION_DOT": 1.847e-05,
    "MEAN_MOTION_DDOT": 0.0,
    "TLE_LINE1": "1 60445U 24144W   25315.27170836  .00001847  00000+0  74462-4 0  9990",
    "TLE_LINE2": "2 60445  53.1638  46.8338 0001635  12.6476 347.4566 15.30201469 71228",
    "COMMENT": "Grouped by shell and plane from TLE"
  },
  {
    "OBJECT_NAME": "STARLINK-32101",
    "OBJECT_ID": "24144Y",
    "EPOCH": "2025-11-11T06:38:50.887968",
    "MEAN_MOTION": 15.30204135,
    "ECCENTRICITY": 0.0001383,
    "INCLINATION": 53.1609,
    "RA_OF_ASC_NODE": 46.8596,
    "ARG_OF_PERICENTER": 61.2536,
    "MEAN_ANOMALY": 298.8604,
    "EPHEMERIS_TYPE": 0,
    "CLASSIFICATION_TYPE": "U",
    "NORAD_CAT_ID": 60447,
    "ELEMENT_SET_NO": 999,
    "REV_AT_EPOCH": 7118,
    "BSTAR": 0.00012273,
    "MEAN_MOTION_DOT": 3.278e-05,
    "MEAN_MOTION_DDOT": 0.0,
    "TLE_LINE1": "1 60447U 24144Y   25315.27697787  .00003278  00000+0  12273-3 0  9992",
    "TLE_LINE2": "2 60447  53.1609  46.8596 0001383  61.2536 298.8604 15.30204135 71181",
    "COMMENT": "Grouped by shell and plane from TLE"
  },
  {
    "OBJECT_NAME": "STARLINK-32650",
    "OBJECT_ID": "24231P",
    "EPOCH": "2025-11-11T06:14:01.093632",
    "MEAN_MOTION": 15.30225984,
    "ECCENTRICITY": 0.0001341,
    "INCLINATION": 53.1613,
    "RA_OF_ASC_NODE": 49.91,
    "ARG_OF_PERICENTER": 78.8004,
    "MEAN_ANOMALY": 281.3148,
    "EPHEMERIS_TYPE": 0,
    "CLASSIFICATION_TYPE": "U",
    "NORAD_CAT_ID": 62231,
    "ELEMENT_SET_NO": 999,
    "REV_AT_EPOCH": 5363,
    "BSTAR": 0.0020859,
    "MEAN_MOTION_DOT": 0.00061985,
    "MEAN_MOTION_DDOT": 0.0,
    "TLE_LINE1": "1 62231U 24231P   25315.25973488  .00061985  00000+0  20859-2 0  9992",
    "TLE_LINE2": "2 62231  53.1613  49.9100 0001341  78.8004 281.3148 15.30225984 53637",
    "COMMENT": "Grouped by shell and plane from TLE"
  },
  {
    "OBJECT_NAME": "STARLINK-32636",
    "OBJECT_ID": "24231Q",
    "EPOCH": "2025-11-11T06:50:19.405248",
    "MEAN_MOTION": 15.30239614,
    "ECCENTRICITY": 0.000181,
    "INCLINATION": 53.1572,
    "RA_OF_ASC_NODE": 49.361,
    "ARG_OF_PERICENTER": 82.4788,
    "MEAN_ANOMALY": 277.6419,
    "EPHEMERIS_TYPE": 0,
    "CLASSIFICATION_TYPE": "U",
    "NORAD_CAT_ID": 62232,
    "ELEMENT_SET_NO": 999,
    "REV_AT_EPOCH": 5364,
    "BSTAR": 0.001446,
    "MEAN_MOTION_DOT": 0.00042767,
    "MEAN_MOTION_DDOT": 0.0,
    "TLE_LINE1": "1 62232U 24231Q   25315.28494682  .00042767  00000+0  14460-2 0  9998",
    "TLE_LINE2": "2 62232  53.1572  49.3610 0001810  82.4788 277.6419 15.30239614 53648",
    "COMMENT": "Grouped by shell and plane from TLE"
  },
  {
    "OBJECT_NAME": "STARLINK-32652",
    "OBJECT_ID": "24231S",
    "EPOCH": "2025-11-11T05:49:42.322944",
    "MEAN_MOTION": 15.30234877,
    "ECCENTRICITY": 0.0001766,
    "INCLINATION": 53.1602,
    "RA_OF_ASC_NODE": 49.8052,
    "ARG_OF_PERICENTER": 79.1368,
    "MEAN_ANOMALY": 280.9831,
    "EPHEMERIS_TYPE": 0,
    "CLASSIFICATION_TYPE": "U",
    "NORAD_CAT_ID": 62234,
    "ELEMENT_SET_NO": 999,
    "REV_AT_EPOCH": 5362,
    "BSTAR": 0.0013425000000000002,
    "MEAN_MOTION_DOT": 0.00039657,
    "MEAN_MOTION_DDOT": 0.0,
    "TLE_LINE1": "1 62234U 24231S   25315.24285096  .00039657  00000+0  13425-2 0  9997",
    "TLE_LINE2": "2 62234  53.1602  49.8052 0001766  79.1368 280.9831 15.30234877 53625",
    "COMMENT": "Grouped by shell and plane from TLE"
  },
  {
    "OBJECT_NAME": "STARLINK-32632",
    "OBJECT_ID": "24231V",
    "EPOCH": "2025-11-11T06:03:22.846464",
    "MEAN_MOTION": 15.30235149,
    "ECCENTRICITY": 0.0001851,
    "INCLINATION": 53.1615,
    "RA_OF_ASC_NODE": 49.8609,
    "ARG_OF_PERICENTER": 73.28,
    "MEAN_ANOMALY": 286.8404,
    "EPHEMERIS_TYPE": 0,
    "CLASSIFICATION_TYPE": "U",
    "NORAD_CAT_ID": 62262,
    "ELEMENT_SET_NO": 999,
    "REV_AT_EPOCH": 5363,
    "BSTAR": 0.0014055,
    "MEAN_MOTION_DOT": 0.00041547,
    "MEAN_MOTION_DDOT": 0.0,
    "TLE_LINE1": "1 62262U 24231V   25315.25234776  .00041547  00000+0  14055-2 0  9999",
    "TLE_LINE2": "2 62262  53.1615  49.8609 0001851  73.2800 286.8404 15.30235149 53634",
    "COMMENT": "Grouped by shell and plane from TLE"
  },
  {
    "OBJECT_NAME": "STARLINK-32799",
    "OBJECT_ID": "25019U",
    "EPOCH": "2025-11-10T07:10:34.276512",
    "MEAN_MOTION": 15.27599112,
    "ECCENTRICITY": 0.0001119,
    "INCLINATION": 43.0031,
    "RA_OF_ASC_NODE": 43.062,
    "ARG_OF_PERICENTER": 260.5416,
    "MEAN_ANOMALY": 99.5309,
    "EPHEMERIS_TYPE": 0,
    "CLASSIFICATION_TYPE": "U",
    "NORAD_CAT_ID": 62847,
    "ELEMENT_SET_NO": 999,
    "REV_AT_EPOCH": 4399,
    "BSTAR": 0.0015029000000000002,
    "MEAN_MOTION_DOT": 0.0004135,
    "MEAN_MOTION_DDOT": 0.0,
    "TLE_LINE1": "1 62847U 25019U   25314.29900783  .00041350  00000+0  15029-2 0  9998",
    "TLE_LINE2": "2 62847  43.0031  43.0620 0001119 260.5416  99.5309 15.27599112 43993",
    "COMMENT": "Grouped by shell and plane from TLE"
  },
  {
    "OBJECT_NAME": "STARLINK-33894",
    "OBJECT_ID": "25087A",
    "EPOCH": "2025-11-11T06:45:46.483200",
    "MEAN_MOTION": 15.30230481,
    "ECCENTRICITY": 0.0002013,
    "INCLINATION": 53.1581,
    "RA_OF_ASC_NODE": 49.3545,
    "ARG_OF_PERICENTER": 91.6309,
    "MEAN_ANOMALY": 268.4922,
    "EPHEMERIS_TYPE": 0,
    "CLASSIFICATION_TYPE": "U",
    "NORAD_CAT_ID": 63697,
    "ELEMENT_SET_NO": 999,
    "REV_AT_EPOCH": 3107,
    "BSTAR": 0.0013557,
    "MEAN_MOTION_DOT": 0.00040049,
    "MEAN_MOTION_DDOT": 0.0,
    "TLE_LINE1": "1 63697U 25087A   25315.28178800  .00040049  00000+0  13557-2 0  9992",
    "TLE_LINE2": "2 63697  53.1581  49.3545 0002013  91.6309 268.4922 15.30230481 31071",
    "COMMENT": "Grouped by shell and plane from TLE"
  }
]